{"type": "FeatureCollection", "features": [ {"type": "Feature", "properties": {"norad_id": 66589, "name": "STARLINK-35447", "group": "last-30-days", "lat": -2.999554155293953, "lon": -5.304570904185163, "alt_km": 415.1562280568596, "timestamp": "2025-12-16T08:59:41.907048+00:00", "meta": {"OBJECT_NAME": "STARLINK-35447", "OBJECT_ID": "2025-270B", "EPOCH": "2025-12-15T19:50:05.279136", "MEAN_MOTION": 15.50406155, "ECCENTRICITY": 0.00019933, "INCLINATION": 42.9998, "RA_OF_ASC_NODE": 174.6793, "ARG_OF_PERICENTER": 255.6063, "MEAN_ANOMALY": 104.4576, "EPHEMERIS_TYPE": 0, "CLASSIFICATION_TYPE": "U", "NORAD_CAT_ID": 66589, "ELEMENT_SET_NO": 999, "REV_AT_EPOCH": 493, "BSTAR": 0.0010135663, "MEAN_MOTION_DOT": 0.00059205, "MEAN_MOTION_DDOT": 0}, "tle": {"line1": "1 66589U 25270B   25349.82644999  .00059205  00000+0  10136-2 0  9997", "line2": "2 66589  42.9998 174.6793 0001993 255.6063 104.4576 15.50406155  4938"}}, "geometry": {"type": "Point", "coordinates": [-5.304570904185163, -2.999554155293953]}}, {"type": "Feature", "properties": {"norad_id": 66590, "name": "STARLINK-35429", "group": "last-30-days", "lat": -3.244359326314557, "lon": -5.038525525378973, "alt_km": 415.0666221503816, "timestamp": "2025-12-16T08:59:41.907059+00:00", "meta": {"OBJECT_NAME": "STARLINK-35429", "OBJECT_ID": "2025-270C", "EPOCH": "2025-12-15T21:22:50.579616", "MEAN_MOTION": 15.50589182, "ECCENTRICITY": 0.0001714, "INCLINATION": 42.9987, "RA_OF_ASC_NODE": 174.3053, "ARG_OF_PERICENTER": 273.6087, "MEAN_ANOMALY": 86.4577, "EPHEMERIS_TYPE": 0, "CLASSIFICATION_TYPE": "U", "NORAD_CAT_ID": 66590, "ELEMENT_SET_NO": 999, "REV_AT_EPOCH": 494, "BSTAR": 0.001003369, "MEAN_MOTION_DOT": 0.00058988, "MEAN_MOTION_DDOT": 0}, "tle": {"line1": "1 66590U 25270C   25349.89086319  .00058988  00000+0  10034-2 0  9996", "line2": "2 66590  42.9987 174.3053 0001714 273.6087  86.4577 15.50589182  4944"}}, "geometry": {"type": "Point", "coordinates": [-5.038525525378973, -3.244359326314557]}}, {"type": "Feature", "properties": {"norad_id": 66591, "name": "STARLINK-36058", "group": "last-30-days", "lat": -5.901566735190825, "lon": -2.1674843053842445, "alt_km": 415.39172246388534, "timestamp": "2025-12-16T08:59:41.907069+00:00", "meta": {"OBJECT_NAME": "STARLINK-36058", "OBJECT_ID": "2025-270D", "EPOCH": "2025-12-15T21:21:49.628736", "MEAN_MOTION": 15.50572022, "ECCENTRICITY": 0.00027275, "INCLINATION": 42.9984, "RA_OF_ASC_NODE": 174.299, "ARG_OF_PERICENTER": 277.7075, "MEAN_ANOMALY": 82.3476, "EPHEMERIS_TYPE": 0, "CLASSIFICATION_TYPE": "U", "NORAD_CAT_ID": 66591, "ELEMENT_SET_NO": 999, "REV_AT_EPOCH": 483, "BSTAR": 0.0014667989, "MEAN_MOTION_DOT": 0.00086651, "MEAN_MOTION_DDOT": 0}, "tle": {"line1": "1 66591U 25270D   25349.89015774  .00086651  00000+0  14668-2 0  9999", "line2": "2 66591  42.9984 174.2990 0002727 277.7075  82.3476 15.50572022  4834"}}, "geometry": {"type": "Point", "coordinates": [-2.1674843053842445, -5.901566735190825]}}, {"type": "Feature", "properties": {"norad_id": 66592, "name": "STARLINK-36066", "group": "last-30-days", "lat": 42.939725127098015, "lon": -101.30102634041006, "alt_km": 438.3137659195954, "timestamp": "2025-12-16T08:59:41.907080+00:00", "meta": {"OBJECT_NAME": "STARLINK-36066", "OBJECT_ID": "2025-270E", "EPOCH": "2025-12-15T22:00:01.999584", "MEAN_MOTION": 15.40660232, "ECCENTRICITY": 0.00016997, "INCLINATION": 42.9995, "RA_OF_ASC_NODE": 174.3515, "ARG_OF_PERICENTER": 265.487, "MEAN_ANOMALY": 158.441, "EPHEMERIS_TYPE": 0, "CLASSIFICATION_TYPE": "U", "NORAD_CAT_ID": 66592, "ELEMENT_SET_NO": 999, "REV_AT_EPOCH": 481, "BSTAR": 0.001623984, "MEAN_MOTION_DOT": 0.00068052, "MEAN_MOTION_DDOT": 0}, "tle": {"line1": "1 66592U 25270E   25349.91668981  .00068052  00000+0  16240-2 0  9990", "line2": "2 66592  42.9995 174.3515 0001699 265.4870 158.4410 15.40660232  4816"}}, "geometry": {"type": "Point", "coordinates": [-101.30102634041006, 42.939725127098015]}}, {"type": "Feature", "properties": {"norad_id": 66593, "name": "STARLINK-36031", "group": "last-30-days", "lat": -2.7287670251862193, "lon": -5.593042589648188, "alt_km": 421.20076775224334, "timestamp": "2025-12-16T08:59:41.907090+00:00", "meta": {"OBJECT_NAME": "STARLINK-36031", "OBJECT_ID": "2025-270F", "EPOCH": "2025-12-15T13:38:01.427712", "MEAN_MOTION": 15.48926076, "ECCENTRICITY": 0.00022408, "INCLINATION": 42.9987, "RA_OF_ASC_NODE": 176.1834, "ARG_OF_PERICENTER": 337.1851, "MEAN_ANOMALY": 22.8909, "EPHEMERIS_TYPE": 0, "CLASSIFICATION_TYPE": "U", "NORAD_CAT_ID": 66593, "ELEMENT_SET_NO": 999, "REV_AT_EPOCH": 478, "BSTAR": 0.00074784737, "MEAN_MOTION_DOT": 0.00041265, "MEAN_MOTION_DDOT": 0}, "tle": {"line1": "1 66593U 25270F   25349.56807208  .00041265  00000+0  74785-3 0  9995", "line2": "2 66593  42.9987 176.1834 0002240 337.1851  22.8909 15.48926076  4783"}}, "geometry": {"type": "Point", "coordinates": [-5.593042589648188, -2.7287670251862193]}}, {"type": "Feature", "properties": {"norad_id": 66594, "name": "STARLINK-36032", "group": "last-30-days", "lat": -9.759805649488587, "lon": 2.0874531856541387, "alt_km": 415.4777608970626, "timestamp": "2025-12-16T08:59:41.907100+00:00", "meta": {"OBJECT_NAME": "STARLINK-36032", "OBJECT_ID": "2025-270G", "EPOCH": "2025-12-15T21:20:22.384608", "MEAN_MOTION": 15.50606409, "ECCENTRICITY": 0.00016785, "INCLINATION": 42.9986, "RA_OF_ASC_NODE": 174.2915, "ARG_OF_PERICENTER": 271.4939, "MEAN_ANOMALY": 88.5729, "EPHEMERIS_TYPE": 0, "CLASSIFICATION_TYPE": "U", "NORAD_CAT_ID": 66594, "ELEMENT_SET_NO": 999, "REV_AT_EPOCH": 464, "BSTAR": 0.001404017, "MEAN_MOTION_DOT": 0.00082985, "MEAN_MOTION_DDOT": 0}, "tle": {"line1": "1 66594U 25270G   25349.88914797  .00082985  00000+0  14040-2 0  9994", "line2": "2 66594  42.9986 174.2915 0001678 271.4939  88.5729 15.50606409  4645"}}, "geometry": {"type": "Point", "coordinates": [2.0874531856541387, -9.759805649488587]}}, {"type": "Feature", "properties": {"norad_id": 66595, "name": "STARLINK-35711", "group": "last-30-days", "lat": -11.028311447275993, "lon": 3.5168249922867156, "alt_km": 415.47988532003, "timestamp": "2025-12-16T08:59:41.907113+00:00", "meta": {"OBJECT_NAME": "STARLINK-35711", "OBJECT_ID": "2025-270H", "EPOCH": "2025-12-15T21:19:52.820256", "MEAN_MOTION": 15.50599835, "ECCENTRICITY": 0.00015719, "INCLINATION": 42.9989, "RA_OF_ASC_NODE": 174.2876, "ARG_OF_PERICENTER": 262.9303, "MEAN_ANOMALY": 97.1378, "EPHEMERIS_TYPE": 0, "CLASSIFICATION_TYPE": "U", "NORAD_CAT_ID": 66595, "ELEMENT_SET_NO": 999, "REV_AT_EPOCH": 494, "BSTAR": 0.0012878764, "MEAN_MOTION_DOT": 0.00076006, "MEAN_MOTION_DDOT": 0}, "tle": {"line1": "1 66595U 25270H   25349.88880579  .00076006  00000+0  12879-2 0  9990", "line2": "2 66595  42.9989 174.2876 0001571 262.9303  97.1378 15.50599835  4940"}}, "geometry": {"type": "Point", "coordinates": [3.5168249922867156, -11.028311447275993]}}, {"type": "Feature", "properties": {"norad_id": 66596, "name": "STARLINK-35811", "group": "last-30-days", "lat": 37.366536218462315, "lon": -133.195106113863, "alt_km": 439.13803766923957, "timestamp": "2025-12-16T08:59:41.907125+00:00", "meta": {"OBJECT_NAME": "STARLINK-35811", "OBJECT_ID": "2025-270J", "EPOCH": "2025-12-15T22:00:01.999584", "MEAN_MOTION": 15.40670125, "ECCENTRICITY": 0.00020808, "INCLINATION": 42.9996, "RA_OF_ASC_NODE": 174.4118, "ARG_OF_PERICENTER": 274.5973, "MEAN_ANOMALY": 124.4379, "EPHEMERIS_TYPE": 0, "CLASSIFICATION_TYPE": "U", "NORAD_CAT_ID": 66596, "ELEMENT_SET_NO": 999, "REV_AT_EPOCH": 501, "BSTAR": 0.0017944433, "MEAN_MOTION_DOT": 0.00075325, "MEAN_MOTION_DDOT": 0}, "tle": {"line1": "1 66596U 25270J   25349.91668981  .00075325  00000+0  17944-2 0  9997", "line2": "2 66596  42.9996 174.4118 0002080 274.5973 124.4379 15.40670125  5013"}}, "geometry": {"type": "Point", "coordinates": [-133.195106113863, 37.366536218462315]}}, {"type": "Feature", "properties": {"norad_id": 66597, "name": "STARLINK-35820", "group": "last-30-days", "lat": 38.966490412301496, "lon": -68.5736367701361, "alt_km": 438.8841529287338, "timestamp": "2025-12-16T08:59:41.907137+00:00", "meta": {"OBJECT_NAME": "STARLINK-35820", "OBJECT_ID": "2025-270K", "EPOCH": "2025-12-15T22:00:01.999584", "MEAN_MOTION": 15.40670042, "ECCENTRICITY": 0.0001803, "INCLINATION": 42.9997, "RA_OF_ASC_NODE": 174.2909, "ARG_OF_PERICENTER": 274.5212, "MEAN_ANOMALY": 174.269, "EPHEMERIS_TYPE": 0, "CLASSIFICATION_TYPE": "U", "NORAD_CAT_ID": 66597, "ELEMENT_SET_NO": 999, "REV_AT_EPOCH": 501, "BSTAR": 0.0019807215, "MEAN_MOTION_DOT": 0.00083262, "MEAN_MOTION_DDOT": 0}, "tle": {"line1": "1 66597U 25270K   25349.91668981  .00083262  00000+0  19807-2 0  9997", "line2": "2 66597  42.9997 174.2909 0001803 274.5212 174.2690 15.40670042  5016"}}, "geometry": {"type": "Point", "coordinates": [-68.5736367701361, 38.966490412301496]}}, {"type": "Feature", "properties": {"norad_id": 66598, "name": "STARLINK-35981", "group": "last-30-days", "lat": -14.992548699217362, "lon": 8.131026247145355, "alt_km": 416.06595171653134, "timestamp": "2025-12-16T08:59:41.907148+00:00", "meta": {"OBJECT_NAME": "STARLINK-35981", "OBJECT_ID": "2025-270L", "EPOCH": "2025-12-15T05:50:49.994016", "MEAN_MOTION": 15.50578636, "ECCENTRICITY": 0.00015186, "INCLINATION": 42.999, "RA_OF_ASC_NODE": 178.0473, "ARG_OF_PERICENTER": 290.6463, "MEAN_ANOMALY": 69.4235, "EPHEMERIS_TYPE": 0, "CLASSIFICATION_TYPE": "U", "NORAD_CAT_ID": 66598, "ELEMENT_SET_NO": 999, "REV_AT_EPOCH": 457, "BSTAR": 0.001433442, "MEAN_MOTION_DOT": 0.00084665, "MEAN_MOTION_DDOT": 0}, "tle": {"line1": "1 66598U 25270L   25349.24363419  .00084665  00000+0  14334-2 0  9990", "line2": "2 66598  42.9990 178.0473 0001518 290.6463  69.4235 15.50578636  4575"}}, "geometry": {"type": "Point", "coordinates": [8.131026247145355, -14.992548699217362]}}]}